CCSDS_OMM_VERS = 2.0
CREATION_DATE  = 
ORIGINATOR     = 

OBJECT_NAME    = STARLINK-36523
OBJECT_ID      = 2026-008R
CENTER_NAME    = EARTH
REF_FRAME      = TEME
TIME_SYSTEM    = UTC
MEAN_ELEMENT_THEORY = SGP/SGP4

EPOCH          = 2026-01-25T22:00:01.999584
MEAN_MOTION    = 15.90492608
ECCENTRICITY   = .00014335
INCLINATION    = 43.0013
RA_OF_ASC_NODE = 93.3483
ARG_OF_PERICENTER = 280.2500
MEAN_ANOMALY   = 155.7920

EPHEMERIS_TYPE = 0
CLASSIFICATION_TYPE = U
NORAD_CAT_ID   = 67460
ELEMENT_SET_NO = 999
REV_AT_EPOCH   = 293
BSTAR          = -.44728733E-2
MEAN_MOTION_DOT = -.1265835E-1
MEAN_MOTION_DDOT = 0

CCSDS_OMM_VERS = 2.0
CREATION_DATE  = 
ORIGINATOR     = 

OBJECT_NAME    = STARLINK-36522
OBJECT_ID      = 2026-008S
CENTER_NAME    = EARTH
REF_FRAME      = TEME
TIME_SYSTEM    = UTC
MEAN_ELEMENT_THEORY = SGP/SGP4

EPOCH          = 2026-01-25T22:00:01.999584
MEAN_MOTION    = 15.90534344
ECCENTRICITY   = .00014586
INCLINATION    = 43.0015
RA_OF_ASC_NODE = 93.3412
ARG_OF_PERICENTER = 279.6045
MEAN_ANOMALY   = 159.2943

EPHEMERIS_TYPE = 0
CLASSIFICATION_TYPE = U
NORAD_CAT_ID   = 67461
ELEMENT_SET_NO = 999
REV_AT_EPOCH   = 291
BSTAR          = -.45317788E-2
MEAN_MOTION_DOT = -.1283072E-1
MEAN_MOTION_DDOT = 0

CCSDS_OMM_VERS = 2.0
CREATION_DATE  = 
ORIGINATOR     = 

OBJECT_NAME    = STARLINK-36504
OBJECT_ID      = 2026-008T
CENTER_NAME    = EARTH
REF_FRAME      = TEME
TIME_SYSTEM    = UTC
MEAN_ELEMENT_THEORY = SGP/SGP4

EPOCH          = 2026-01-25T22:00:01.999584
MEAN_MOTION    = 15.90571359
ECCENTRICITY   = .00014463
INCLINATION    = 43.0015
RA_OF_ASC_NODE = 93.3331
ARG_OF_PERICENTER = 278.3322
MEAN_ANOMALY   = 163.7486

EPHEMERIS_TYPE = 0
CLASSIFICATION_TYPE = U
NORAD_CAT_ID   = 67462
ELEMENT_SET_NO = 999
REV_AT_EPOCH   = 293
BSTAR          = -.45807922E-2
MEAN_MOTION_DOT = -.1297533E-1
MEAN_MOTION_DDOT = 0

CCSDS_OMM_VERS = 2.0
CREATION_DATE  = 
ORIGINATOR     = 

OBJECT_NAME    = STARLINK-36505
OBJECT_ID      = 2026-008U
CENTER_NAME    = EARTH
REF_FRAME      = TEME
TIME_SYSTEM    = UTC
MEAN_ELEMENT_THEORY = SGP/SGP4

EPOCH          = 2026-01-25T22:00:01.999584
MEAN_MOTION    = 15.90601484
ECCENTRICITY   = .00014379
INCLINATION    = 43.0019
RA_OF_ASC_NODE = 93.3251
ARG_OF_PERICENTER = 278.6448
MEAN_ANOMALY   = 166.7304

EPHEMERIS_TYPE = 0
CLASSIFICATION_TYPE = U
NORAD_CAT_ID   = 67463
ELEMENT_SET_NO = 999
REV_AT_EPOCH   = 291
BSTAR          = -.46224009E-2
MEAN_MOTION_DOT = -.1309737E-1
MEAN_MOTION_DDOT = 0

CCSDS_OMM_VERS = 2.0
CREATION_DATE  = 
ORIGINATOR     = 

OBJECT_NAME    = STARLINK-36421
OBJECT_ID      = 2026-008V
CENTER_NAME    = EARTH
REF_FRAME      = TEME
TIME_SYSTEM    = UTC
MEAN_ELEMENT_THEORY = SGP/SGP4

EPOCH          = 2026-01-25T22:00:01.999584
MEAN_MOTION    = 15.90626163
ECCENTRICITY   = .00014588
INCLINATION    = 43.0017
RA_OF_ASC_NODE = 93.3167
ARG_OF_PERICENTER = 281.3692
MEAN_ANOMALY   = 167.3877

EPHEMERIS_TYPE = 0
CLASSIFICATION_TYPE = U
NORAD_CAT_ID   = 67464
ELEMENT_SET_NO = 999
REV_AT_EPOCH   = 291
BSTAR          = -.46532477E-2
MEAN_MOTION_DOT = -.1318949E-1
MEAN_MOTION_DDOT = 0

CCSDS_OMM_VERS = 2.0
CREATION_DATE  = 
ORIGINATOR     = 

OBJECT_NAME    = STARLINK-36437
OBJECT_ID      = 2026-008W
CENTER_NAME    = EARTH
REF_FRAME      = TEME
TIME_SYSTEM    = UTC
MEAN_ELEMENT_THEORY = SGP/SGP4

EPOCH          = 2026-01-25T22:00:01.999584
MEAN_MOTION    = 15.90657461
ECCENTRICITY   = .00015215
INCLINATION    = 43.0016
RA_OF_ASC_NODE = 93.3092
ARG_OF_PERICENTER = 278.6658
MEAN_ANOMALY   = 172.8899

EPHEMERIS_TYPE = 0
CLASSIFICATION_TYPE = U
NORAD_CAT_ID   = 67465
ELEMENT_SET_NO = 999
REV_AT_EPOCH   = 291
BSTAR          = -.46910588E-2
MEAN_MOTION_DOT = -.1330337E-1
MEAN_MOTION_DDOT = 0

CCSDS_OMM_VERS = 2.0
CREATION_DATE  = 
ORIGINATOR     = 

OBJECT_NAME    = STARLINK-36520
OBJECT_ID      = 2026-008X
CENTER_NAME    = EARTH
REF_FRAME      = TEME
TIME_SYSTEM    = UTC
MEAN_ELEMENT_THEORY = SGP/SGP4

EPOCH          = 2026-01-25T22:00:01.999584
MEAN_MOTION    = 15.90685153
ECCENTRICITY   = .00014566
INCLINATION    = 43.0015
RA_OF_ASC_NODE = 93.3010
ARG_OF_PERICENTER = 276.8232
MEAN_ANOMALY   = 177.8712

EPHEMERIS_TYPE = 0
CLASSIFICATION_TYPE = U
NORAD_CAT_ID   = 67466
ELEMENT_SET_NO = 999
REV_AT_EPOCH   = 291
BSTAR          = -.47233978E-2
MEAN_MOTION_DOT = -.134005E-1
MEAN_MOTION_DDOT = 0

CCSDS_OMM_VERS = 2.0
CREATION_DATE  = 
ORIGINATOR     = 

OBJECT_NAME    = STARLINK-36425
OBJECT_ID      = 2026-008Y
CENTER_NAME    = EARTH
REF_FRAME      = TEME
TIME_SYSTEM    = UTC
MEAN_ELEMENT_THEORY = SGP/SGP4

EPOCH          = 2026-01-25T22:00:01.999584
MEAN_MOTION    = 15.90712959
ECCENTRICITY   = .00014204
INCLINATION    = 43.0015
RA_OF_ASC_NODE = 93.2940
ARG_OF_PERICENTER = 281.6224
MEAN_ANOMALY   = 175.9036

EPHEMERIS_TYPE = 0
CLASSIFICATION_TYPE = U
NORAD_CAT_ID   = 67467
ELEMENT_SET_NO = 999
REV_AT_EPOCH   = 291
BSTAR          = -.47309338E-2
MEAN_MOTION_DOT = -.134361E-1
MEAN_MOTION_DDOT = 0

CCSDS_OMM_VERS = 2.0
CREATION_DATE  = 
ORIGINATOR     = 

OBJECT_NAME    = STARLINK-36414
OBJECT_ID      = 2026-008Z
CENTER_NAME    = EARTH
REF_FRAME      = TEME
TIME_SYSTEM    = UTC
MEAN_ELEMENT_THEORY = SGP/SGP4

EPOCH          = 2026-01-25T22:00:01.999584
MEAN_MOTION    = 15.92684740
ECCENTRICITY   = .00015161
INCLINATION    = 43.0017
RA_OF_ASC_NODE = 93.1816
ARG_OF_PERICENTER = 278.2470
MEAN_ANOMALY   = 223.5726

EPHEMERIS_TYPE = 0
CLASSIFICATION_TYPE = U
NORAD_CAT_ID   = 67468
ELEMENT_SET_NO = 999
REV_AT_EPOCH   = 291
BSTAR          = -.38937939E-2
MEAN_MOTION_DOT = -.1385056E-1
MEAN_MOTION_DDOT = .5518903E-3

CCSDS_OMM_VERS = 2.0
CREATION_DATE  = 
ORIGINATOR     = 

OBJECT_NAME    = STARLINK-36441
OBJECT_ID      = 2026-008AA
CENTER_NAME    = EARTH
REF_FRAME      = TEME
TIME_SYSTEM    = UTC
MEAN_ELEMENT_THEORY = SGP/SGP4

EPOCH          = 2026-01-25T22:00:01.999584
MEAN_MOTION    = 15.92790862
ECCENTRICITY   = .00014189
INCLINATION    = 43.0016
RA_OF_ASC_NODE = 93.1351
ARG_OF_PERICENTER = 281.0379
MEAN_ANOMALY   = 238.9636

EPHEMERIS_TYPE = 0
CLASSIFICATION_TYPE = U
NORAD_CAT_ID   = 67469
ELEMENT_SET_NO = 999
REV_AT_EPOCH   = 291
BSTAR          = -.4169083E-2
MEAN_MOTION_DOT = -.1489953E-1
MEAN_MOTION_DDOT = .63160812E-3

CCSDS_OMM_VERS = 2.0
CREATION_DATE  = 
ORIGINATOR     = 

OBJECT_NAME    = STARLINK-36454
OBJECT_ID      = 2026-008AB
CENTER_NAME    = EARTH
REF_FRAME      = TEME
TIME_SYSTEM    = UTC
MEAN_ELEMENT_THEORY = SGP/SGP4

EPOCH          = 2026-01-25T22:00:01.999584
MEAN_MOTION    = 15.92832144
ECCENTRICITY   = .00012796
INCLINATION    = 43.0014
RA_OF_ASC_NODE = 93.1157
ARG_OF_PERICENTER = 277.7624
MEAN_ANOMALY   = 249.8682

EPHEMERIS_TYPE = 0
CLASSIFICATION_TYPE = U
NORAD_CAT_ID   = 67470
ELEMENT_SET_NO = 999
REV_AT_EPOCH   = 291
BSTAR          = -.42806064E-2
MEAN_MOTION_DOT = -.1532573E-1
MEAN_MOTION_DDOT = .66545589E-3

CCSDS_OMM_VERS = 2.0
CREATION_DATE  = 
ORIGINATOR     = 

OBJECT_NAME    = STARLINK-36334
OBJECT_ID      = 2026-008AC
CENTER_NAME    = EARTH
REF_FRAME      = TEME
TIME_SYSTEM    = UTC
MEAN_ELEMENT_THEORY = SGP/SGP4

EPOCH          = 2026-01-25T22:00:01.999584
MEAN_MOTION    = 15.92736892
ECCENTRICITY   = .00013846
INCLINATION    = 43.0015
RA_OF_ASC_NODE = 93.1595
ARG_OF_PERICENTER = 277.8315
MEAN_ANOMALY   = 232.5717

EPHEMERIS_TYPE = 0
CLASSIFICATION_TYPE = U
NORAD_CAT_ID   = 67471
ELEMENT_SET_NO = 999
REV_AT_EPOCH   = 291
BSTAR          = -.40255946E-2
MEAN_MOTION_DOT = -.1435239E-1
MEAN_MOTION_DDOT = .58939632E-3

CCSDS_OMM_VERS = 2.0
CREATION_DATE  = 
ORIGINATOR     = 

OBJECT_NAME    = STARLINK-36269
OBJECT_ID      = 2026-008AD
CENTER_NAME    = EARTH
REF_FRAME      = TEME
TIME_SYSTEM    = UTC
MEAN_ELEMENT_THEORY = SGP/SGP4

EPOCH          = 2026-01-25T22:00:01.999584
MEAN_MOTION    = 15.92873724
ECCENTRICITY   = .00011924
INCLINATION    = 43.0012
RA_OF_ASC_NODE = 93.0889
ARG_OF_PERICENTER = 276.7035
MEAN_ANOMALY   = 261.3205

EPHEMERIS_TYPE = 0
CLASSIFICATION_TYPE = U
NORAD_CAT_ID   = 67472
ELEMENT_SET_NO = 999
REV_AT_EPOCH   = 293
BSTAR          = -.44369836E-2
MEAN_MOTION_DOT = -.1591273E-1
MEAN_MOTION_DDOT = .71336444E-3

CCSDS_OMM_VERS = 2.0
CREATION_DATE  = 
ORIGINATOR     = 

OBJECT_NAME    = STARLINK-36408
OBJECT_ID      = 2026-008AE
CENTER_NAME    = EARTH
REF_FRAME      = TEME
TIME_SYSTEM    = UTC
MEAN_ELEMENT_THEORY = SGP/SGP4

EPOCH          = 2026-01-25T22:00:01.999584
MEAN_MOTION    = 15.92911041
ECCENTRICITY   = .00012052
INCLINATION    = 43.0015
RA_OF_ASC_NODE = 93.0502
ARG_OF_PERICENTER = 276.6701
MEAN_ANOMALY   = 276.8181

EPHEMERIS_TYPE = 0
CLASSIFICATION_TYPE = U
NORAD_CAT_ID   = 67473
ELEMENT_SET_NO = 999
REV_AT_EPOCH   = 293
BSTAR          = -.4699173E-2
MEAN_MOTION_DOT = -.1687351E-1
MEAN_MOTION_DDOT = .79504077E-3

CCSDS_OMM_VERS = 2.0
CREATION_DATE  = 
ORIGINATOR     = 

OBJECT_NAME    = ALSAT-3A
OBJECT_ID      = 2026-009A
CENTER_NAME    = EARTH
REF_FRAME      = TEME
TIME_SYSTEM    = UTC
MEAN_ELEMENT_THEORY = SGP/SGP4

EPOCH          = 2026-01-25T22:20:43.691136
MEAN_MOTION    = 15.02996202
ECCENTRICITY   = .00992697
INCLINATION    = 97.1800
RA_OF_ASC_NODE = 99.6116
ARG_OF_PERICENTER = 185.3675
MEAN_ANOMALY   = 174.6497

EPHEMERIS_TYPE = 0
CLASSIFICATION_TYPE = U
NORAD_CAT_ID   = 67474
ELEMENT_SET_NO = 999
REV_AT_EPOCH   = 162
BSTAR          = .43529291E-3
MEAN_MOTION_DOT = .6463E-4
MEAN_MOTION_DDOT = 0

